start=new Date('2022-03-14T00:00:00.000Z').valueOf();
sats=[{"OBJECT_NAME":"STARLINK-1878","MEAN_MOTION_DOT":"-0.00002496","CLASSIFICATION_TYPE":"U","EPHEMERIS_TYPE":"0","ECCENTRICITY":"0.00017150","ARG_OF_PERICENTER":"65.6300","PERIAPSIS":"546.035","RA_OF_ASC_NODE":"12.9309","TLE_LINE2":"2 47163  53.0544  12.9309 0001715  65.6300 294.4868 15.06396946 72326","SITE":"AFETR","LAUNCH_DATE":"2020-11-25","EPOCH":"2022-03-13T13:24:30.294144","FILE":"3358124","ELEMENT_SET_NO":"999","MEAN_MOTION":"15.06396946","TIME_SYSTEM":"UTC","NORAD_CAT_ID":"47163","DECAY_DATE":null,"MEAN_MOTION_DDOT":"0.0000000000000","COUNTRY_CODE":"US","INCLINATION":"53.0544","OBJECT_ID":"2020-088AT","OBJECT_TYPE":"PAYLOAD","RCS_SIZE":"LARGE","GP_ID":"198660378","SEMIMAJOR_AXIS":"6925.358","TLE_LINE1":"1 47163U 20088AT  22072.55868396 -.00002496  00000-0 -14875-3 0  9993","REV_AT_EPOCH":"7232","APOAPSIS":"548.411","MEAN_ELEMENT_THEORY":"SGP4","CENTER_NAME":"EARTH","BSTAR":"-0.00014875000000","PERIOD":"95.592","MEAN_ANOMALY":"294.4868","REF_FRAME":"TEME"},{"INCLINATION":"53.0600","COUNTRY_CODE":"US","NORAD_CAT_ID":"47164","MEAN_MOTION_DDOT":"0.0000000000000","DECAY_DATE":null,"RCS_SIZE":"LARGE","OBJECT_TYPE":"PAYLOAD","OBJECT_ID":"2020-088AU","GP_ID":"198688252","SEMIMAJOR_AXIS":"6925.371","TLE_LINE1":"1 47164U 20088AU  22072.94479288 -.00003797  00000-0 -23619-3 0  9996","REV_AT_EPOCH":"7255","BSTAR":"-0.00023619000000","REF_FRAME":"TEME","MEAN_ANOMALY":"307.9559","PERIOD":"95.593","CENTER_NAME":"EARTH","MEAN_ELEMENT_THEORY":"SGP4","APOAPSIS":"548.693","CLASSIFICATION_TYPE":"U","OBJECT_NAME":"STARLINK-1879","MEAN_MOTION_DOT":"-0.00003797","ECCENTRICITY":"0.00021040","EPHEMERIS_TYPE":"0","SITE":"AFETR","TLE_LINE2":"2 47164  53.0600 341.2046 0002104  52.1620 307.9559 15.06392761 72558","LAUNCH_DATE":"2020-11-25","RA_OF_ASC_NODE":"341.2046","PERIAPSIS":"545.779","ARG_OF_PERICENTER":"52.1620","MEAN_MOTION":"15.06392761","TIME_SYSTEM":"UTC","ELEMENT_SET_NO":"999","EPOCH":"2022-03-13T22:40:30.104832","FILE":"3358388"},{"MEAN_MOTION_DOT":"-0.00003323","OBJECT_NAME":"STARLINK-1880","CLASSIFICATION_TYPE":"U","EPHEMERIS_TYPE":"0","ECCENTRICITY":"0.00015710","ARG_OF_PERICENTER":"78.1927","PERIAPSIS":"546.135","RA_OF_ASC_NODE":"1.1684","LAUNCH_DATE":"2020-11-25","TLE_LINE2":"2 47165  53.0559   1.1684 0001571  78.1927 281.9238 15.06396844 72277","SITE":"AFETR","EPOCH":"2022-03-13T22:48:26.408160","FILE":"3358388","ELEMENT_SET_NO":"999","TIME_SYSTEM":"UTC","MEAN_MOTION":"15.06396844","DECAY_DATE":null,"MEAN_MOTION_DDOT":"0.0000000000000","NORAD_CAT_ID":"47165","COUNTRY_CODE":"US","INCLINATION":"53.0559","OBJECT_ID":"2020-088AV","OBJECT_TYPE":"PAYLOAD","RCS_SIZE":"LARGE","TLE_LINE1":"1 47165U 20088AV  22072.95030565 -.00003323  00000-0 -20429-3 0  9990","REV_AT_EPOCH":"7227","GP_ID":"198688999","SEMIMAJOR_AXIS":"6925.358","APOAPSIS":"548.311","MEAN_ELEMENT_THEORY":"SGP4","CENTER_NAME":"EARTH","MEAN_ANOMALY":"281.9238","PERIOD":"95.592","REF_FRAME":"TEME","BSTAR":"-0.00020429000000"},{"OBJECT_ID":"2020-088AW","OBJECT_TYPE":"PAYLOAD","RCS_SIZE":"LARGE","DECAY_DATE":null,"MEAN_MOTION_DDOT":"0.0000000000000","NORAD_CAT_ID":"47166","COUNTRY_CODE":"US","INCLINATION":"53.0501","APOAPSIS":"446.956","MEAN_ELEMENT_THEORY":"SGP4","CENTER_NAME":"EARTH","PERIOD":"93.523","MEAN_ANOMALY":"181.8565","REF_FRAME":"TEME","BSTAR":"0.00242750000000","REV_AT_EPOCH":"7316","TLE_LINE1":"1 47166U 20088AW  22072.90437284  .00098297  00000-0  24275-2 0  9999","SEMIMAJOR_AXIS":"6825.069","GP_ID":"198688746","EPHEMERIS_TYPE":"0","ECCENTRICITY":"0.00000330","MEAN_MOTION_DOT":"0.00098297","OBJECT_NAME":"STARLINK-1881","CLASSIFICATION_TYPE":"U","FILE":"3358388","EPOCH":"2022-03-13T21:42:17.813376","ELEMENT_SET_NO":"999","TIME_SYSTEM":"UTC","MEAN_MOTION":"15.39721607","ARG_OF_PERICENTER":"178.2439","RA_OF_ASC_NODE":"298.2191","PERIAPSIS":"446.911","LAUNCH_DATE":"2020-11-25","TLE_LINE2":"2 47166  53.0501 298.2191 0000033 178.2439 181.8565 15.39721607 73164","SITE":"AFETR"},{"LAUNCH_DATE":"2020-11-25","SITE":"AFETR","TLE_LINE2":"2 47167  53.0550   1.2389 0001826  47.8517 312.2627 15.06386005 72272","RA_OF_ASC_NODE":"1.2389","PERIAPSIS":"545.992","ARG_OF_PERICENTER":"47.8517","TIME_SYSTEM":"UTC","MEAN_MOTION":"15.06386005","ELEMENT_SET_NO":"999","FILE":"3358388","EPOCH":"2022-03-13T22:27:13.066560","CLASSIFICATION_TYPE":"U","MEAN_MOTION_DOT":"0.00000162","OBJECT_NAME":"STARLINK-1884","ECCENTRICITY":"0.00018260","EPHEMERIS_TYPE":"0","TLE_LINE1":"1 47167U 20088AX  22072.93556790  .00000162  00000-0  29791-4 0  9991","REV_AT_EPOCH":"7227","GP_ID":"198688004","SEMIMAJOR_AXIS":"6925.391","REF_FRAME":"TEME","MEAN_ANOMALY":"312.2627","PERIOD":"95.593","BSTAR":"0.00002979100000","MEAN_ELEMENT_THEORY":"SGP4","CENTER_NAME":"EARTH","APOAPSIS":"548.521","INCLINATION":"53.0550","COUNTRY_CODE":"US","MEAN_MOTION_DDOT":"0.0000000000000","DECAY_DATE":null,"NORAD_CAT_ID":"47167","RCS_SIZE":"LARGE","OBJECT_TYPE":"PAYLOAD","OBJECT_ID":"2020-088AX"},{"GP_ID":"198687752","SEMIMAJOR_AXIS":"6777.304","TLE_LINE1":"1 47168U 20088AY  22072.89391548  .00053531  00000-0  75692-3 0  9993","REV_AT_EPOCH":"7261","BSTAR":"0.00075692000000","MEAN_ANOMALY":"276.0828","PERIOD":"92.543","REF_FRAME":"TEME","APOAPSIS":"399.925","MEAN_ELEMENT_THEORY":"SGP4","CENTER_NAME":"EARTH","COUNTRY_CODE":"US","INCLINATION":"53.0554","NORAD_CAT_ID":"47168","MEAN_MOTION_DDOT":"0.0000000000000","DECAY_DATE":null,"OBJECT_TYPE":"PAYLOAD","RCS_SIZE":"LARGE","OBJECT_ID":"2020-088AY","TLE_LINE2":"2 47168  53.0554 337.0703 0001115  84.0310 276.0828 15.56027658 72611","SITE":"AFETR","LAUNCH_DATE":"2020-11-25","ARG_OF_PERICENTER":"84.0310","PERIAPSIS":"398.413","RA_OF_ASC_NODE":"337.0703","MEAN_MOTION":"15.56027658","TIME_SYSTEM":"UTC","EPOCH":"2022-03-13T21:27:14.297472","FILE":"3358388","ELEMENT_SET_NO":"999","CLASSIFICATION_TYPE":"U","OBJECT_NAME":"STARLINK-1885","MEAN_MOTION_DOT":"0.00053531","ECCENTRICITY":"0.00011150","EPHEMERIS_TYPE":"0"},{"CLASSIFICATION_TYPE":"U","OBJECT_NAME":"STARLINK-1887","MEAN_MOTION_DOT":"-0.00003338","ECCENTRICITY":"0.00014790","EPHEMERIS_TYPE":"0","TLE_LINE2":"2 47170  53.0558   2.7953 0001479  67.0058 293.1087 15.06393245 72221","SITE":"AFETR","LAUNCH_DATE":"2020-11-25","ARG_OF_PERICENTER":"67.0058","PERIAPSIS":"546.210","RA_OF_ASC_NODE":"2.7953","MEAN_MOTION":"15.06393245","TIME_SYSTEM":"UTC","EPOCH":"2022-03-13T14:08:17.936736","FILE":"3358388","ELEMENT_SET_NO":"999","COUNTRY_CODE":"US","INCLINATION":"53.0558","NORAD_CAT_ID":"47170","DECAY_DATE":null,"MEAN_MOTION_DDOT":"0.0000000000000","OBJECT_TYPE":"PAYLOAD","RCS_SIZE":"LARGE","OBJECT_ID":"2020-088BA","SEMIMAJOR_AXIS":"6925.369","GP_ID":"198688499","REV_AT_EPOCH":"7222","TLE_LINE1":"1 47170U 20088BA  22072.58909649 -.00003338  00000-0 -20536-3 0  9998","BSTAR":"-0.00020536000000","PERIOD":"95.593","MEAN_ANOMALY":"293.1087","REF_FRAME":"TEME","APOAPSIS":"548.259","CENTER_NAME":"EARTH","MEAN_ELEMENT_THEORY":"SGP4"},{"INCLINATION":"53.0551","COUNTRY_CODE":"US","NORAD_CAT_ID":"47171","MEAN_MOTION_DDOT":"0.0000000000000","DECAY_DATE":null,"RCS_SIZE":"LARGE","OBJECT_TYPE":"PAYLOAD","OBJECT_ID":"2020-088BB","GP_ID":"198689247","SEMIMAJOR_AXIS":"6925.373","REV_AT_EPOCH":"7241","TLE_LINE1":"1 47171U 20088BB  22072.94018198 -.00000154  00000-0  85838-5 0  9999","BSTAR":"0.00000858380000","REF_FRAME":"TEME","PERIOD":"95.593","MEAN_ANOMALY":"304.1800","CENTER_NAME":"EARTH","MEAN_ELEMENT_THEORY":"SGP4","APOAPSIS":"548.346","CLASSIFICATION_TYPE":"U","OBJECT_NAME":"STARLINK-1888","MEAN_MOTION_DOT":"-0.00000154","ECCENTRICITY":"0.00016000","EPHEMERIS_TYPE":"0","SITE":"AFETR","TLE_LINE2":"2 47171  53.0551 351.2234 0001600  55.9340 304.1800 15.06392073 72410","LAUNCH_DATE":"2020-11-25","RA_OF_ASC_NODE":"351.2234","PERIAPSIS":"546.130","ARG_OF_PERICENTER":"55.9340","MEAN_MOTION":"15.06392073","TIME_SYSTEM":"UTC","ELEMENT_SET_NO":"999","FILE":"3358388","EPOCH":"2022-03-13T22:33:51.723072"},{"BSTAR":"0.00103330000000","PERIOD":"90.655","MEAN_ANOMALY":"150.5509","REF_FRAME":"TEME","APOAPSIS":"308.872","MEAN_ELEMENT_THEORY":"SGP4","CENTER_NAME":"EARTH","GP_ID":"198687504","SEMIMAJOR_AXIS":"6684.778","REV_AT_EPOCH":"7332","TLE_LINE1":"1 47172U 20088BC  22072.86579595  .00302763  00000-0  10333-2 0  9999","OBJECT_TYPE":"PAYLOAD","RCS_SIZE":"LARGE","OBJECT_ID":"2020-088BC","COUNTRY_CODE":"US","INCLINATION":"53.0440","NORAD_CAT_ID":"47172","DECAY_DATE":null,"MEAN_MOTION_DDOT":"0.0000000000000","MEAN_MOTION":"15.88445313","TIME_SYSTEM":"UTC","FILE":"3358388","EPOCH":"2022-03-13T20:46:44.770080","ELEMENT_SET_NO":"999","TLE_LINE2":"2 47172  53.0440 285.7447 0003335 209.5327 150.5509 15.88445313 73320","SITE":"AFETR","LAUNCH_DATE":"2020-11-25","ARG_OF_PERICENTER":"209.5327","RA_OF_ASC_NODE":"285.7447","PERIAPSIS":"304.414","ECCENTRICITY":"0.00033350","EPHEMERIS_TYPE":"0","CLASSIFICATION_TYPE":"U","OBJECT_NAME":"STARLINK-1889","MEAN_MOTION_DOT":"0.00302763"},{"REV_AT_EPOCH":"7226","TLE_LINE1":"1 47173U 20088BD  22072.86553282 -.00002729  00000-0 -16440-3 0  9992","GP_ID":"198688253","SEMIMAJOR_AXIS":"6925.386","MEAN_ANOMALY":"304.6895","PERIOD":"95.593","REF_FRAME":"TEME","BSTAR":"-0.00016440000000","APOAPSIS":"548.528","CENTER_NAME":"EARTH","MEAN_ELEMENT_THEORY":"SGP4","COUNTRY_CODE":"US","INCLINATION":"53.0572","DECAY_DATE":null,"MEAN_MOTION_DDOT":"0.0000000000000","NORAD_CAT_ID":"47173","RCS_SIZE":"LARGE","OBJECT_TYPE":"PAYLOAD","OBJECT_ID":"2020-088BD","LAUNCH_DATE":"2020-11-25","TLE_LINE2":"2 47173  53.0572   1.5445 0001844  55.4267 304.6895 15.06387691 72269","SITE":"AFETR","ARG_OF_PERICENTER":"55.4267","RA_OF_ASC_NODE":"1.5445","PERIAPSIS":"545.974","TIME_SYSTEM":"UTC","MEAN_MOTION":"15.06387691","EPOCH":"2022-03-13T20:46:22.035648","FILE":"3358388","ELEMENT_SET_NO":"999","CLASSIFICATION_TYPE":"U","MEAN_MOTION_DOT":"-0.00002729","OBJECT_NAME":"STARLINK-1890","ECCENTRICITY":"0.00018440","EPHEMERIS_TYPE":"0"}];
